STARLINK-2022           
1 47643U 21012Z   24230.03153358  .00015527  00000+0  10588-2 0  9992
2 47643  53.0538  88.9156 0001153  77.9354 282.1765 15.06407329193889
